{
  "links" : {
    "next" : "https://api.nasa.gov/neo/rest/v1/feed?start_date=2003-12-23&end_date=2003-12-23&detailed=true&api_key=t0TVs3DtDT2H8Oy2Zy8m2eVrNsAVKAexjcZXUckd",
    "prev" : "https://api.nasa.gov/neo/rest/v1/feed?start_date=2003-12-21&end_date=2003-12-21&detailed=true&api_key=t0TVs3DtDT2H8Oy2Zy8m2eVrNsAVKAexjcZXUckd",
    "self" : "https://api.nasa.gov/neo/rest/v1/feed?start_date=2003-12-22&end_date=2003-12-22&detailed=true&api_key=t0TVs3DtDT2H8Oy2Zy8m2eVrNsAVKAexjcZXUckd"
  },
  "element_count" : 4,
  "near_earth_objects" : {
    "2003-12-22" : [ {
      "links" : {
        "self" : "https://api.nasa.gov/neo/rest/v1/neo/3624059?api_key=t0TVs3DtDT2H8Oy2Zy8m2eVrNsAVKAexjcZXUckd"
      },
      "neo_reference_id" : "3624059",
      "name" : "(2013 AT72)",
      "nasa_jpl_url" : "http://ssd.jpl.nasa.gov/sbdb.cgi?sstr=3624059",
      "absolute_magnitude_h" : 24.2,
      "estimated_diameter" : {
        "kilometers" : {
          "estimated_diameter_min" : 0.0384197891,
          "estimated_diameter_max" : 0.0859092601
        },
        "meters" : {
          "estimated_diameter_min" : 38.4197891064,
          "estimated_diameter_max" : 85.9092601232
        },
        "miles" : {
          "estimated_diameter_min" : 0.0238729428,
          "estimated_diameter_max" : 0.0533815229
        },
        "feet" : {
          "estimated_diameter_min" : 126.0491808919,
          "estimated_diameter_max" : 281.8545369825
        }
      },
      "is_potentially_hazardous_asteroid" : false,
      "close_approach_data" : [ {
        "close_approach_date" : "2003-12-22",
        "epoch_date_close_approach" : 1072080000000,
        "relative_velocity" : {
          "kilometers_per_second" : "15.2870776954",
          "kilometers_per_hour" : "55033.47970348",
          "miles_per_hour" : "34195.6640968651"
        },
        "miss_distance" : {
          "astronomical" : "0.1649108266",
          "lunar" : "64.1503067017",
          "kilometers" : "24670308",
          "miles" : "15329419"
        },
        "orbiting_body" : "Earth"
      } ],
      "orbital_data" : {
        "orbit_id" : "12",
        "orbit_determination_date" : "2017-04-06 08:47:14",
        "orbit_uncertainty" : "7",
        "minimum_orbit_intersection" : ".0220494",
        "jupiter_tisserand_invariant" : "8.261",
        "epoch_osculation" : "2458000.5",
        "eccentricity" : ".535942671975728",
        "semi_major_axis" : ".6781765731332074",
        "inclination" : "15.0199936972237",
        "ascending_node_longitude" : "118.21570794",
        "orbital_period" : "203.991749243783",
        "perihelion_distance" : ".3147128084568536",
        "perihelion_argument" : "167.7491738430729",
        "aphelion_distance" : "1.041640337809561",
        "perihelion_time" : "2458025.050394146310",
        "mean_anomaly" : "316.6740227218244",
        "mean_motion" : "1.76477725856342",
        "equinox" : "J2000"
      }
    }, {
      "links" : {
        "self" : "https://api.nasa.gov/neo/rest/v1/neo/3624741?api_key=t0TVs3DtDT2H8Oy2Zy8m2eVrNsAVKAexjcZXUckd"
      },
      "neo_reference_id" : "3624741",
      "name" : "(2013 BC18)",
      "nasa_jpl_url" : "http://ssd.jpl.nasa.gov/sbdb.cgi?sstr=3624741",
      "absolute_magnitude_h" : 19.0,
      "estimated_diameter" : {
        "kilometers" : {
          "estimated_diameter_min" : 0.4212646106,
          "estimated_diameter_max" : 0.9419763057
        },
        "meters" : {
          "estimated_diameter_min" : 421.2646105562,
          "estimated_diameter_max" : 941.9763057186
        },
        "miles" : {
          "estimated_diameter_min" : 0.2617616123,
          "estimated_diameter_max" : 0.5853167591
        },
        "feet" : {
          "estimated_diameter_min" : 1382.1017848971,
          "estimated_diameter_max" : 3090.4735428537
        }
      },
      "is_potentially_hazardous_asteroid" : true,
      "close_approach_data" : [ {
        "close_approach_date" : "2003-12-22",
        "epoch_date_close_approach" : 1072080000000,
        "relative_velocity" : {
          "kilometers_per_second" : "35.6427888668",
          "kilometers_per_hour" : "128314.0399206229",
          "miles_per_hour" : "79729.3544162337"
        },
        "miss_distance" : {
          "astronomical" : "0.3813485705",
          "lunar" : "148.3446044922",
          "kilometers" : "57048936",
          "miles" : "35448564"
        },
        "orbiting_body" : "Earth"
      } ],
      "orbital_data" : {
        "orbit_id" : "24",
        "orbit_determination_date" : "2017-04-06 08:47:08",
        "orbit_uncertainty" : "3",
        "minimum_orbit_intersection" : ".015962",
        "jupiter_tisserand_invariant" : "2.732",
        "epoch_osculation" : "2458000.5",
        "eccentricity" : ".7706213791095967",
        "semi_major_axis" : "2.752302033077451",
        "inclination" : "24.81921844449271",
        "ascending_node_longitude" : "286.2124895546773",
        "orbital_period" : "1667.794599753165",
        "perihelion_distance" : ".6313192446211587",
        "perihelion_argument" : "262.2706893877634",
        "aphelion_distance" : "4.873284821533743",
        "perihelion_time" : "2458042.801846689287",
        "mean_anomaly" : "350.8689806224356",
        "mean_motion" : ".2158539187339258",
        "equinox" : "J2000"
      }
    }, {
      "links" : {
        "self" : "https://api.nasa.gov/neo/rest/v1/neo/3703545?api_key=t0TVs3DtDT2H8Oy2Zy8m2eVrNsAVKAexjcZXUckd"
      },
      "neo_reference_id" : "3703545",
      "name" : "(2015 AJ44)",
      "nasa_jpl_url" : "http://ssd.jpl.nasa.gov/sbdb.cgi?sstr=3703545",
      "absolute_magnitude_h" : 22.3,
      "estimated_diameter" : {
        "kilometers" : {
          "estimated_diameter_min" : 0.0921626549,
          "estimated_diameter_max" : 0.2060819612
        },
        "meters" : {
          "estimated_diameter_min" : 92.1626548503,
          "estimated_diameter_max" : 206.0819612321
        },
        "miles" : {
          "estimated_diameter_min" : 0.057267201,
          "estimated_diameter_max" : 0.1280533543
        },
        "feet" : {
          "estimated_diameter_min" : 302.370924539,
          "estimated_diameter_max" : 676.1219416887
        }
      },
      "is_potentially_hazardous_asteroid" : false,
      "close_approach_data" : [ {
        "close_approach_date" : "2003-12-22",
        "epoch_date_close_approach" : 1072080000000,
        "relative_velocity" : {
          "kilometers_per_second" : "24.9551205809",
          "kilometers_per_hour" : "89838.434091384",
          "miles_per_hour" : "55822.1092275047"
        },
        "miss_distance" : {
          "astronomical" : "0.3350215494",
          "lunar" : "130.3233795166",
          "kilometers" : "50118512",
          "miles" : "31142200"
        },
        "orbiting_body" : "Earth"
      } ],
      "orbital_data" : {
        "orbit_id" : "15",
        "orbit_determination_date" : "2017-04-06 08:36:26",
        "orbit_uncertainty" : "3",
        "minimum_orbit_intersection" : ".0661538",
        "jupiter_tisserand_invariant" : "6.587",
        "epoch_osculation" : "2458000.5",
        "eccentricity" : ".476156751006149",
        "semi_major_axis" : ".8871785006474511",
        "inclination" : "6.321997456036145",
        "ascending_node_longitude" : "117.1002254173843",
        "orbital_period" : "305.2213719357146",
        "perihelion_distance" : ".464742468216654",
        "perihelion_argument" : "192.5492381725183",
        "aphelion_distance" : "1.309614533078248",
        "perihelion_time" : "2458131.003458268735",
        "mean_anomaly" : "206.0748515780878",
        "mean_motion" : "1.179471796869529",
        "equinox" : "J2000"
      }
    }, {
      "links" : {
        "self" : "https://api.nasa.gov/neo/rest/v1/neo/3738552?api_key=t0TVs3DtDT2H8Oy2Zy8m2eVrNsAVKAexjcZXUckd"
      },
      "neo_reference_id" : "3738552",
      "name" : "(2015 YT)",
      "nasa_jpl_url" : "http://ssd.jpl.nasa.gov/sbdb.cgi?sstr=3738552",
      "absolute_magnitude_h" : 25.8,
      "estimated_diameter" : {
        "kilometers" : {
          "estimated_diameter_min" : 0.0183888672,
          "estimated_diameter_max" : 0.0411187571
        },
        "meters" : {
          "estimated_diameter_min" : 18.388867207,
          "estimated_diameter_max" : 41.1187571041
        },
        "miles" : {
          "estimated_diameter_min" : 0.0114263088,
          "estimated_diameter_max" : 0.0255500032
        },
        "feet" : {
          "estimated_diameter_min" : 60.3309310875,
          "estimated_diameter_max" : 134.9040630575
        }
      },
      "is_potentially_hazardous_asteroid" : false,
      "close_approach_data" : [ {
        "close_approach_date" : "2003-12-22",
        "epoch_date_close_approach" : 1072080000000,
        "relative_velocity" : {
          "kilometers_per_second" : "19.3115408274",
          "kilometers_per_hour" : "69521.5469786522",
          "miles_per_hour" : "43197.9856768187"
        },
        "miss_distance" : {
          "astronomical" : "0.3666020358",
          "lunar" : "142.6081848145",
          "kilometers" : "54842884",
          "miles" : "34077788"
        },
        "orbiting_body" : "Earth"
      } ],
      "orbital_data" : {
        "orbit_id" : "4",
        "orbit_determination_date" : "2017-04-06 08:29:43",
        "orbit_uncertainty" : "6",
        "minimum_orbit_intersection" : ".00640451",
        "jupiter_tisserand_invariant" : "6.314",
        "epoch_osculation" : "2458000.5",
        "eccentricity" : ".2562886251921602",
        "semi_major_axis" : ".9478951580270834",
        "inclination" : "1.57853031718368",
        "ascending_node_longitude" : "270.852656242511",
        "orbital_period" : "337.0845784789796",
        "perihelion_distance" : ".7049604111500168",
        "perihelion_argument" : "53.34044052520012",
        "aphelion_distance" : "1.19082990490415",
        "perihelion_time" : "2457962.466409625827",
        "mean_anomaly" : "40.61916032019281",
        "mean_motion" : "1.067981221877373",
        "equinox" : "J2000"
      }
    } ]
  }
}